<gpx xmlns:ns3="http://www.garmin.com/xmlschemas/TrackPointExtension/v1" xmlns="http://www.topografix.com/GPX/1/1" xmlns:xsi="http://www.w3.org/2001/XMLSchema-instance" xmlns:ns2="http://www.garmin.com/xmlschemas/GpxExtensions/v3" creator="Garmin Connect" version="1.1" xsi:schemaLocation="http://www.topografix.com/GPX/1/1 http://www.topografix.com/GPX/11.xsd">
  <extensions>
<distance>120.09</distance>
<average_hr>91.0</average_hr>
<average_speed>0.09600000083446504</average_speed>
<start_time>2026-10-03T07:43:40+00:00</start_time>
<end_time>2026-10-03T08:04:37.161000+00:00</end_time>
<moving_time>95.0</moving_time>
<elapsed_time>1257.161</elapsed_time>
</extensions>
<metadata>
    <link href="connect.garmin.com">
      <text>Garmin Connect</text>
    </link>
    <time>2026-10-03T07:43:40.000Z</time>
  </metadata>
  <trk>
    <name>羽毛球</name>
    <type>badminton</type>
    <trkseg/>
  </trk>
</gpx>
